NORAD_CAT_ID,OBJECT_NAME,OBJECT_TYPE,EPOCH,MEAN_MOTION,ECCENTRICITY,INCLINATION,RA_OF_ASC_NODE,ARG_OF_PERICENTER,MEAN_ANOMALY,BSTAR,MEAN_MOTION_DOT,MEAN_MOTION_DDOT,TLE_LINE0,TLE_LINE1,TLE_LINE2,SEMIMAJOR_AXIS,PERIOD,APOGEE,PERIGEE,DECAYED
52382.0,STARLINK-3799,PAYLOAD,2024-03-05 12:36:32,15.08834231,0.0001334,53.2169,244.9257,94.8787,265.2357,1.0593e-06,-2.71e-06,0.0,0 STARLINK-3799,1 52382U 22045BD  24065.52537679 -.00000271  00000-0  10593-5 0  9998,2 52382  53.2169 244.9257 0001334  94.8787 265.2357 15.08834231105095,6917.898,95.438,540.686,538.84,0.0
52382.0,STARLINK-3799,PAYLOAD,2024-03-05 18:58:05,15.08835491,0.0001247,53.2166,243.7351,91.764,268.3495,8.8647e-06,-1.47e-06,0.0,0 STARLINK-3799,1 52382U 22045BD  24065.79033639 -.00000147  00000-0  88647-5 0  9991,2 52382  53.2166 243.7351 0001247  91.7640 268.3495 15.08835491105132,6917.894,95.438,540.622,538.897,0.0
52382.0,STARLINK-3799,PAYLOAD,2024-03-06 12:27:20,15.08833632,0.0001309,53.218,240.464,99.8184,260.2956,-3.5648e-05,-8.55e-06,0.0,0 STARLINK-3799,1 52382U 22045BD  24066.51898168 -.00000855  00000-0 -35648-4 0  9997,2 52382  53.2180 240.4640 0001309  99.8184 260.2956 15.08833632105244,6917.9,95.438,540.67,538.859,0.0
52382.0,STARLINK-3799,PAYLOAD,2024-03-07 10:42:43,15.08831005,0.0001477,53.2167,236.2977,82.7864,277.3296,0.00012054,1.631e-05,0.0,0 STARLINK-3799,1 52382U 22045BD  24067.44634203  .00001631  00000-0  12054-3 0  9994,2 52382  53.2167 236.2977 0001477  82.7864 277.3296 15.08831005105380,6917.908,95.438,540.795,538.751,0.0
52382.0,STARLINK-3799,PAYLOAD,2024-03-08 04:11:58,15.08841227,0.000133,53.2177,233.0285,88.2472,271.8672,0.00010509,1.385e-05,0.0,0 STARLINK-3799,1 52382U 22045BD  24068.17497814  .00001385  00000-0  10509-3 0  9999,2 52382  53.2177 233.0285 0001330  88.2472 271.8672 15.08841227105498,6917.877,95.437,540.662,538.822,0.0
52382.0,STARLINK-3799,PAYLOAD,2024-03-08 10:33:31,15.08834014,0.0001199,53.2169,231.8371,90.546,269.5669,0.00011161,1.489e-05,0.0,0 STARLINK-3799,1 52382U 22045BD  24068.43994235  .00001489  00000-0  11161-3 0  9997,2 52382  53.2169 231.8371 0001199  90.5460 269.5669 15.08834014105538,6917.899,95.438,540.593,538.934,0.0
52382.0,STARLINK-3799,PAYLOAD,2024-03-08 16:55:03,15.08835815,0.0001172,53.2165,230.6489,89.6919,270.4207,0.00010832,1.436e-05,0.0,0 STARLINK-3799,1 52382U 22045BD  24068.70490187  .00001436  00000-0  10832-3 0  9990,2 52382  53.2165 230.6489 0001172  89.6919 270.4207 15.08835815105573,6917.893,95.438,540.569,538.947,0.0
52382.0,STARLINK-3799,PAYLOAD,2024-03-09 04:02:44,15.08841663,0.0001233,53.217,228.5644,82.8578,277.2555,0.0001686,2.397e-05,0.0,0 STARLINK-3799,1 52382U 22045BD  24069.16857614  .00002397  00000-0  16860-3 0  9997,2 52382  53.2170 228.5644 0001233  82.8578 277.2555 15.08841663105649,6917.875,95.437,540.593,538.887,0.0
52382.0,STARLINK-3799,PAYLOAD,2024-03-09 10:24:18,15.08823676,9.86e-05,53.2173,227.3751,106.0216,254.0885,7.4796e-05,9.02e-06,0.0,0 STARLINK-3799,1 52382U 22045BD  24069.43354831  .00000902  00000-0  74796-4 0  9993,2 52382  53.2173 227.3751 0000986 106.0216 254.0885 15.08823676105687,6917.93,95.439,540.477,539.113,0.0
52382.0,STARLINK-3799,PAYLOAD,2024-03-09 16:45:50,15.08827927,9.77e-05,53.2148,226.1861,104.2847,255.8254,0.00016929,2.407e-05,0.0,0 STARLINK-3799,1 52382U 22045BD  24069.69850387  .00002407  00000-0  16929-3 0  9993,2 52382  53.2148 226.1861 0000977 104.2847 255.8254 15.08827927105725,6917.917,95.438,540.458,539.106,0.0
52382.0,STARLINK-3799,PAYLOAD,2024-03-10 03:53:32,15.08844257,0.0001246,53.2163,224.1035,102.7552,257.3579,3.3395e-05,2.44e-06,0.0,0 STARLINK-3799,1 52382U 22045BD  24070.16217745  .00000244  00000-0  33395-4 0  9996,2 52382  53.2163 224.1035 0001246 102.7552 257.3579 15.08844257105798,6917.867,95.437,540.594,538.87,0.0
52382.0,STARLINK-3799,PAYLOAD,2024-03-10 19:47:23,15.08856581,6.04e-05,53.2161,221.1321,14.9339,345.1671,-0.00022345,-3.844e-05,0.0,0 STARLINK-3799,1 52382U 22045BD  24070.82457610 -.00003844  00000-0 -22345-3 0  9999,2 52382  53.2161 221.1321 0000604  14.9339 345.1671 15.08856581105898,6917.83,95.437,540.113,539.277,0.0
52382.0,STARLINK-3799,PAYLOAD,2024-03-11 19:38:11,15.08833909,0.0001566,53.2184,216.6713,101.7234,258.3934,9.178e-06,-1.42e-06,0.0,0 STARLINK-3799,1 52382U 22045BD  24071.81818592 -.00000142  00000-0  91780-5 0  9997,2 52382  53.2184 216.6713 0001566 101.7234 258.3934 15.08833909106048,6917.899,95.438,540.847,538.681,0.0
52382.0,STARLINK-3799,PAYLOAD,2024-03-12 16:18:12,15.08836333,0.0001653,53.2188,212.8059,93.2932,266.825,3.7924e-05,3.16e-06,0.0,0 STARLINK-3799,1 52382U 22045BD  24072.67930615  .00000316  00000-0  37924-4 0  9994,2 52382  53.2188 212.8059 0001653  93.2932 266.8250 15.08836333106173,6917.892,95.438,540.9,538.613,0.0
52382.0,STARLINK-3799,PAYLOAD,2024-03-13 01:50:30,15.08838716,0.0001871,53.2215,211.0229,94.7722,265.3484,4.9606e-05,5.01e-06,0.0,0 STARLINK-3799,1 52382U 22045BD  24073.07674517  .00000501  00000-0  49606-4 0  9991,2 52382  53.2215 211.0229 0001871  94.7722 265.3484 15.08838716106236,6917.884,95.438,541.044,538.455,0.0
52382.0,STARLINK-3799,PAYLOAD,2024-03-13 19:19:45,15.08843597,0.0001932,53.2219,207.7528,96.2652,263.856,-4.6649e-05,-1.031e-05,0.0,0 STARLINK-3799,1 52382U 22045BD  24073.80538791 -.00001031  00000-0 -46649-4 0  9990,2 52382  53.2219 207.7528 0001932  96.2652 263.8560 15.08843597106344,6917.869,95.437,541.071,538.398,0.0
52382.0,STARLINK-3799,PAYLOAD,2024-03-14 19:10:32,15.08837788,0.000174,53.2195,203.2911,90.4608,269.6584,6.3122e-05,7.17e-06,0.0,0 STARLINK-3799,1 52382U 22045BD  24074.79898960  .00000717  00000-0  63122-4 0  9999,2 52382  53.2195 203.2911 0001740  90.4608 269.6584 15.08837788106499,6917.887,95.438,540.956,538.548,0.0
52382.0,STARLINK-3799,PAYLOAD,2024-03-15 07:53:37,15.08839232,0.0001768,53.219,200.9121,84.2422,275.8772,7.5678e-05,9.17e-06,0.0,0 STARLINK-3799,1 52382U 22045BD  24075.32890850  .00000917  00000-0  75678-4 0  9990,2 52382  53.2190 200.9121 0001768  84.2422 275.8772 15.08839232106579,6917.883,95.438,540.971,538.525,0.0
52382.0,STARLINK-3799,PAYLOAD,2024-03-16 12:30:34,15.08836884,0.0001873,53.2226,195.5624,96.3944,263.7261,1.2289e-06,-2.69e-06,0.0,0 STARLINK-3799,1 52382U 22045BD  24076.52123247 -.00000269  00000-0  12289-5 0  9993,2 52382  53.2226 195.5624 0001873  96.3944 263.7261 15.08836884106755,6917.89,95.438,541.051,538.459,0.0
52382.0,STARLINK-3799,PAYLOAD,2024-03-16 14:05:57,15.08838857,0.0001353,53.2179,195.2608,102.227,257.8873,2.9497e-05,1.82e-06,0.0,0 STARLINK-3799,1 52382U 22045BD  24076.58747001  .00000182  00000-0  29497-4 0  9990,2 52382  53.2179 195.2608 0001353 102.2270 257.8873 15.08838857106769,6917.884,95.438,540.685,538.813,0.0
52382.0,STARLINK-3799,PAYLOAD,2024-03-17 13:56:44,15.08840424,0.000146,53.2185,190.802,93.5186,266.5974,6.3058e-05,7.16e-06,0.0,0 STARLINK-3799,1 52382U 22045BD  24077.58106852  .00000716  00000-0  63058-4 0  9998,2 52382  53.2185 190.8020 0001460  93.5186 266.5974 15.08840424106911,6917.879,95.438,540.754,538.734,0.0
52382.0,STARLINK-3799,PAYLOAD,2024-03-18 12:12:08,15.08838406,0.0001427,53.2185,186.639,101.2105,258.9047,4.3292e-05,4.01e-06,0.0,0 STARLINK-3799,1 52382U 22045BD  24078.50843007  .00000401  00000-0  43292-4 0  9990,2 52382  53.2185 186.6390 0001427 101.2105 258.9047 15.08838406107054,6917.885,95.438,540.737,538.763,0.0
52382.0,STARLINK-3799,PAYLOAD,2024-03-18 16:58:17,15.08841514,0.0001389,53.2179,185.746,99.6686,260.4463,6.2447e-05,7.06e-06,0.0,0 STARLINK-3799,1 52382U 22045BD  24078.70714736  .00000706  00000-0  62447-4 0  9999,2 52382  53.2179 185.7460 0001389  99.6686 260.4463 15.08841514107083,6917.876,95.437,540.702,538.78,0.0
52382.0,STARLINK-3799,PAYLOAD,2024-03-19 12:02:54,15.08847261,0.0001446,53.2171,182.1765,92.3072,267.8086,6.1979e-05,6.99e-06,0.0,0 STARLINK-3799,1 52382U 22045BD  24079.50202417  .00000699  00000-0  61979-4 0  9996,2 52382  53.2171 182.1765 0001446  92.3072 267.8086 15.08847261107208,6917.858,95.437,540.724,538.723,0.0
52382.0,STARLINK-3799,PAYLOAD,2024-03-19 13:38:17,15.08849455,0.000153,53.2176,181.8789,96.881,263.2356,7.7241e-05,9.42e-06,0.0,0 STARLINK-3799,1 52382U 22045BD  24079.56826192  .00000942  00000-0  77241-4 0  9994,2 52382  53.2176 181.8789 0001530  96.8810 263.2356 15.08849455107216,6917.851,95.437,540.775,538.658,0.0
52382.0,STARLINK-3799,PAYLOAD,2024-03-20 10:18:20,15.08819214,0.0001652,53.2175,178.0132,109.2108,250.9063,-0.00012015,-2.199e-05,0.0,0 STARLINK-3799,1 52382U 22045BD  24080.42940572 -.00002199  00000-0 -12015-3 0  9995,2 52382  53.2175 178.0132 0001652 109.2108 250.9063 15.08819214107341,6917.944,95.439,540.952,538.666,0.0
52382.0,STARLINK-3799,PAYLOAD,2024-03-20 13:29:07,15.08819584,0.0001547,53.2176,177.4187,107.0106,253.1056,-0.00011123,-2.057e-05,0.0,0 STARLINK-3799,1 52382U 22045BD  24080.56188717 -.00002057  00000-0 -11123-3 0  9997,2 52382  53.2176 177.4187 0001547 107.0106 253.1056 15.08819584107361,6917.943,95.439,540.878,538.738,0.0
52382.0,STARLINK-3799,PAYLOAD,2024-03-20 23:01:25,15.0883353,0.0001166,53.2172,175.6342,81.9661,278.1464,-4.4543e-06,-3.59e-06,0.0,0 STARLINK-3799,1 52382U 22045BD  24080.95931950 -.00000359  00000-0 -44543-5 0  9992,2 52382  53.2172 175.6342 0001166  81.9661 278.1464 15.08833530107427,6917.9,95.438,540.572,538.959,0.0
52382.0,STARLINK-3799,PAYLOAD,2024-03-21 13:19:52,15.08846655,0.0001313,53.2161,172.9625,85.1534,274.9608,7.577e-05,9.18e-06,0.0,0 STARLINK-3799,1 52382U 22045BD  24081.55547147  .00000918  00000-0  75770-4 0  9994,2 52382  53.2161 172.9625 0001313  85.1534 274.9608 15.08846655107514,6917.86,95.437,540.633,538.817,0.0
52382.0,STARLINK-3799,PAYLOAD,2024-03-21 16:30:37,15.0885791,0.0001465,53.2172,172.3637,98.685,261.4308,0.00015517,2.184e-05,0.0,0 STARLINK-3799,1 52382U 22045BD  24081.68793972  .00002184  00000-0  15517-3 0  9996,2 52382  53.2172 172.3637 0001465  98.6850 261.4308 15.08857910107537,6917.826,95.436,540.704,538.677,0.0
